NORAD_CAT_ID,OBJECT_NAME,OBJECT_TYPE,EPOCH,MEAN_MOTION,ECCENTRICITY,INCLINATION,RA_OF_ASC_NODE,ARG_OF_PERICENTER,MEAN_ANOMALY,BSTAR,MEAN_MOTION_DOT,MEAN_MOTION_DDOT,TLE_LINE0,TLE_LINE1,TLE_LINE2,SEMIMAJOR_AXIS,PERIOD,APOGEE,PERIGEE,DECAYED
51978.0,STARLINK-3666,PAYLOAD,2024-03-29 10:46:44,15.0884677,0.0001417,53.2204,347.5369,94.4568,265.6586,-1.7349e-05,-5.64e-06,0.0,0 STARLINK-3666,1 51978U 22025Y   24089.44913049 -.00000564  00000-0 -17349-4 0  9993,2 51978  53.2204 347.5369 0001417  94.4568 265.6586 15.08846770114925,6917.86,95.437,540.705,538.744,0.0
51978.0,STARLINK-3666,PAYLOAD,2024-03-29 21:54:26,15.0884843,0.000113,53.22,345.4562,97.4948,262.6173,0.00024547,3.622e-05,0.0,0 STARLINK-3666,1 51978U 22025Y   24089.91280312  .00003622  00000-0  24547-3 0  9998,2 51978  53.2200 345.4562 0001130  97.4948 262.6173 15.08848430113901,6917.855,95.437,540.501,538.938,0.0
51978.0,STARLINK-3666,PAYLOAD,2024-03-30 02:40:35,15.08857727,0.0001126,53.2184,344.5638,98.9996,261.1124,0.00030468,4.567e-05,0.0,0 STARLINK-3666,1 51978U 22025Y   24090.11152164  .00004567  00000-0  30468-3 0  9993,2 51978  53.2184 344.5638 0001126  98.9996 261.1124 15.08857727115024,6917.826,95.436,540.47,538.912,0.0
51978.0,STARLINK-3666,PAYLOAD,2024-03-30 23:20:36,15.08846842,0.0001234,53.2188,340.6985,91.0688,269.0446,0.00027396,4.076e-05,0.0,0 STARLINK-3666,1 51978U 22025Y   24090.97264718  .00004076  00000-0  27396-3 0  9997,2 51978  53.2188 340.6985 0001234  91.0688 269.0446 15.08846842114065,6917.859,95.437,540.578,538.871,0.0
51978.0,STARLINK-3666,PAYLOAD,2024-03-31 02:31:22,15.08848816,0.0001097,53.218,340.1046,86.3088,273.803,0.00024924,3.682e-05,0.0,0 STARLINK-3666,1 51978U 22025Y   24091.10512627  .00003682  00000-0  24924-3 0  9994,2 51978  53.2180 340.1046 0001097  86.3088 273.8030 15.08848816115176,6917.853,95.437,540.477,538.96,0.0
51978.0,STARLINK-3666,PAYLOAD,2024-03-31 20:00:37,15.08839237,0.0001144,53.2177,336.8331,85.1345,274.9778,-4.678e-05,-1.032e-05,0.0,0 STARLINK-3666,1 51978U 22025Y   24091.83376720 -.00001032  00000-0 -46780-4 0  9990,2 51978  53.2177 336.8331 0001144  85.1345 274.9778 15.08839237115287,6917.883,95.438,540.539,538.956,0.0
51978.0,STARLINK-3666,PAYLOAD,2024-03-31 21:36:00,15.08839413,0.0001109,53.2177,336.5359,86.0435,274.0684,-4.6018e-05,-1.02e-05,0.0,0 STARLINK-3666,1 51978U 22025Y   24091.90000787 -.00001020  00000-0 -46018-4 0  9996,2 51978  53.2177 336.5359 0001109  86.0435 274.0684 15.08839413114209,6917.882,95.438,540.514,538.98,0.0
51978.0,STARLINK-3666,PAYLOAD,2024-03-31 23:11:23,15.08841782,0.0001153,53.2173,336.2386,85.1129,274.9995,-7.8096e-05,-1.531e-05,0.0,0 STARLINK-3666,1 51978U 22025Y   24091.96624646 -.00001531  00000-0 -78096-4 0  9996,2 51978  53.2173 336.2386 0001153  85.1129 274.9995 15.08841782114218,6917.875,95.437,540.538,538.942,0.0
51978.0,STARLINK-3666,PAYLOAD,2024-04-01 23:02:10,15.08838914,0.0001138,53.2176,331.778,82.2982,277.8139,0.00012811,1.752e-05,0.0,0 STARLINK-3666,1 51978U 22025Y   24092.95984792  .00001752  00000-0  12811-3 0  9992,2 51978  53.2176 331.7780 0001138  82.2982 277.8139 15.08838914115459,6917.884,95.438,540.536,538.961,0.0
51978.0,STARLINK-3666,PAYLOAD,2024-04-02 08:34:29,15.08844529,0.0001174,53.2179,329.9935,82.688,277.4245,0.00016204,2.292e-05,0.0,0 STARLINK-3666,1 51978U 22025Y   24093.35728385  .00002292  00000-0  16204-3 0  9991,2 51978  53.2179 329.9935 0001174  82.6880 277.4245 15.08844529114423,6917.867,95.437,540.544,538.919,0.0
51978.0,STARLINK-3666,PAYLOAD,2024-04-02 19:42:12,15.08831818,0.0001749,53.2214,327.9173,116.5394,243.5778,0.00010183,1.333e-05,0.0,0 STARLINK-3666,1 51978U 22025Y   24093.82097399  .00001333  00000-0  10183-3 0  9992,2 51978  53.2214 327.9173 0001749 116.5394 243.5778 15.08831818114499,6917.905,95.438,540.98,538.56,0.0
51978.0,STARLINK-3666,PAYLOAD,2024-04-02 22:52:58,15.0883185,0.0001549,53.2204,327.3216,108.4948,251.6212,8.0386e-05,9.91e-06,0.0,0 STARLINK-3666,1 51978U 22025Y   24093.95345503  .00000991  00000-0  80386-4 0  9991,2 51978  53.2204 327.3216 0001549 108.4948 251.6212 15.08831850115606,6917.905,95.438,540.842,538.699,0.0
51978.0,STARLINK-3666,PAYLOAD,2024-04-03 08:25:17,15.08838117,0.0001513,53.2202,325.5365,96.3451,263.7714,6.0288e-05,6.72e-06,0.0,0 STARLINK-3666,1 51978U 22025Y   24094.35089306  .00000672  00000-0  60288-4 0  9997,2 51978  53.2202 325.5365 0001513  96.3451 263.7714 15.08838117114573,6917.886,95.438,540.798,538.704,0.0
51978.0,STARLINK-3666,PAYLOAD,2024-04-03 19:32:58,15.0884189,0.0001519,53.2199,323.4545,94.3946,265.722,0.00010076,1.316e-05,0.0,0 STARLINK-3666,1 51978U 22025Y   24094.81456918  .00001316  00000-0  10076-3 0  9990,2 51978  53.2199 323.4545 0001519  94.3946 265.7220 15.08841890115733,6917.875,95.437,540.79,538.689,0.0
51978.0,STARLINK-3666,PAYLOAD,2024-04-04 08:16:03,15.08847581,0.0001274,53.2177,321.0728,83.9845,276.1292,7.6122e-05,9.24e-06,0.0,0 STARLINK-3666,1 51978U 22025Y   24095.34448422  .00000924  00000-0  76122-4 0  9999,2 51978  53.2177 321.0728 0001274  83.9845 276.1292 15.08847581114722,6917.857,95.437,540.604,538.841,0.0
51978.0,STARLINK-3666,PAYLOAD,2024-04-04 20:59:08,15.08838117,0.0001294,53.217,318.6943,87.5387,272.5753,0.00011808,1.592e-05,0.0,0 STARLINK-3666,1 51978U 22025Y   24095.87440920  .00001592  00000-0  11808-3 0  9993,2 51978  53.2170 318.6943 0001294  87.5387 272.5753 15.08838117115895,6917.886,95.438,540.646,538.856,0.0
51978.0,STARLINK-3666,PAYLOAD,2024-04-05 14:28:23,15.08845795,0.0001345,53.2171,315.4244,85.9839,274.1307,1.3898e-05,-6.7e-07,0.0,0 STARLINK-3666,1 51978U 22025Y   24096.60304589 -.00000067  00000-0  13898-4 0  9994,2 51978  53.2171 315.4244 0001345  85.9839 274.1307 15.08845795114911,6917.863,95.437,540.658,538.797,0.0
51978.0,STARLINK-3666,PAYLOAD,2024-04-05 20:49:56,15.0882629,0.0001257,53.2172,314.2349,88.0867,272.0269,0.00017707,2.53e-05,0.0,0 STARLINK-3666,1 51978U 22025Y   24096.86801207  .00002530  00000-0  17707-3 0  9999,2 51978  53.2172 314.2349 0001257  88.0867 272.0269 15.08826290114959,6917.922,95.438,540.657,538.918,0.0
51978.0,STARLINK-3666,PAYLOAD,2024-04-06 07:57:37,15.08845394,0.0001296,53.2172,312.1534,98.3331,261.7808,1.0228e-05,-1.25e-06,0.0,0 STARLINK-3666,1 51978U 22025Y   24097.33168472 -.00000125  00000-0  10228-4 0  9993,2 51978  53.2172 312.1534 0001296  98.3331 261.7808 15.08845394116115,6917.864,95.437,540.625,538.832,0.0
51978.0,STARLINK-3666,PAYLOAD,2024-04-06 14:19:10,15.08841281,0.0001385,53.2173,310.9641,85.243,274.872,5.9658e-05,6.62e-06,0.0,0 STARLINK-3666,1 51978U 22025Y   24097.59664625  .00000662  00000-0  59658-4 0  9997,2 51978  53.2173 310.9641 0001385  85.2430 274.8720 15.08841281115067,6917.876,95.437,540.7,538.783,0.0
51978.0,STARLINK-3666,PAYLOAD,2024-04-06 20:40:42,15.08841192,0.0001378,53.2173,309.7745,85.9334,274.1815,5.5227e-05,5.91e-06,0.0,0 STARLINK-3666,1 51978U 22025Y   24097.86160605  .00000591  00000-0  55227-4 0  9995,2 51978  53.2173 309.7745 0001378  85.9334 274.1815 15.08841192115104,6917.877,95.437,540.695,538.788,0.0
51978.0,STARLINK-3666,PAYLOAD,2024-04-07 14:09:57,15.08837064,0.0001422,53.2173,306.5016,92.5671,267.5484,4.5757e-05,4.4e-06,0.0,0 STARLINK-3666,1 51978U 22025Y   24098.59024915  .00000440  00000-0  45757-4 0  9999,2 51978  53.2173 306.5016 0001422  92.5671 267.5484 15.08837064115211,6917.889,95.438,540.738,538.771,0.0
51978.0,STARLINK-3666,PAYLOAD,2024-04-07 20:31:30,15.08834397,0.0001375,53.2177,305.3116,94.8761,265.2388,-6.6748e-07,-2.99e-06,0.0,0 STARLINK-3666,1 51978U 22025Y   24098.85521266 -.00000299  00000-0 -66748-6 0  9998,2 51978  53.2177 305.3116 0001375  94.8761 265.2388 15.08834397116344,6917.898,95.438,540.714,538.811,0.0
51978.0,STARLINK-3666,PAYLOAD,2024-04-07 23:42:16,15.08833828,0.0001377,53.2178,304.7171,94.6575,265.4575,-5.9953e-06,-3.83e-06,0.0,0 STARLINK-3666,1 51978U 22025Y   24098.98769353 -.00000383  00000-0 -59953-5 0  9996,2 51978  53.2178 304.7171 0001377  94.6575 265.4575 15.08833828115271,6917.899,95.438,540.717,538.812,0.0
51978.0,STARLINK-3666,PAYLOAD,2024-04-08 20:22:16,15.08848374,0.000131,53.219,300.853,91.581,268.5332,0.00010111,1.322e-05,0.0,0 STARLINK-3666,1 51978U 22025Y   24099.84880014  .00001322  00000-0  10111-3 0  9993,2 51978  53.2190 300.8530 0001310  91.5810 268.5332 15.08848374116498,6917.855,95.437,540.626,538.814,0.0
51978.0,STARLINK-3666,PAYLOAD,2024-04-08 23:33:02,15.08849987,0.0001279,53.2187,300.2573,91.2313,268.8826,0.00011645,1.566e-05,0.0,0 STARLINK-3666,1 51978U 22025Y   24099.98127807  .00001566  00000-0  11645-3 0  9995,2 51978  53.2187 300.2573 0001279  91.2313 268.8826 15.08849987115428,6917.85,95.437,540.6,538.83,0.0
51978.0,STARLINK-3666,PAYLOAD,2024-04-09 05:54:34,15.08860007,0.0001301,53.2193,299.0686,94.3692,265.7449,-1.8402e-05,-5.81e-06,0.0,0 STARLINK-3666,1 51978U 22025Y   24100.24623328 -.00000581  00000-0 -18402-4 0  9993,2 51978  53.2193 299.0686 0001301  94.3692 265.7449 15.08860007116553,6917.819,95.436,540.584,538.784,0.0
51978.0,STARLINK-3666,PAYLOAD,2024-04-09 20:13:04,15.08830125,0.0001538,53.219,296.3925,90.8714,269.2454,1.786e-05,-4e-08,0.0,0 STARLINK-3666,1 51978U 22025Y   24100.84241524 -.00000004  00000-0  17860-4 0  9999,2 51978  53.2190 296.3925 0001538  90.8714 269.2454 15.08830125116647,6917.911,95.438,540.84,538.712,0.0
51978.0,STARLINK-3666,PAYLOAD,2024-04-09 21:48:27,15.0882802,0.0001331,53.2185,296.0952,90.4839,269.6305,5.5878e-06,-1.99e-06,0.0,0 STARLINK-3666,1 51978U 22025Y   24100.90865731 -.00000199  00000-0  55878-5 0  9995,2 51978  53.2185 296.0952 0001331  90.4839 269.6305 15.08828020115563,6917.917,95.438,540.703,538.861,0.0
51978.0,STARLINK-3666,PAYLOAD,2024-04-10 05:45:23,15.08833432,0.000137,53.2169,294.6087,94.3325,265.7824,-1.006e-05,-4.48e-06,0.0,0 STARLINK-3666,1 51978U 22025Y   24101.23985632 -.00000448  00000-0 -10060-4 0  9996,2 51978  53.2169 294.6087 0001370  94.3325 265.7824 15.08833432115616,6917.9,95.438,540.713,538.818,0.0
